TEVEL2-2                
1 63219U 25052K   26068.64848259  .00020339  00000+0  69428-3 0  9991
2 63219  97.3987 324.7700 0004693 105.7930 254.3828 15.30343745 54855
STARLINK-35196          
1 66007U 25232C   26068.79249760  .00020056  00000+0  68743-3 0  9992
2 66007  53.1586 103.2665 0001502  80.3479 279.7692 15.30200138 23449
